CCSDS_OMM_VERS,COMMENT,CREATION_DATE,ORIGINATOR,OBJECT_NAME,OBJECT_ID,CENTER_NAME,REF_FRAME,TIME_SYSTEM,MEAN_ELEMENT_THEORY,EPOCH,MEAN_MOTION,ECCENTRICITY,INCLINATION,RA_OF_ASC_NODE,ARG_OF_PERICENTER,MEAN_ANOMALY,EPHEMERIS_TYPE,CLASSIFICATION_TYPE,NORAD_CAT_ID,ELEMENT_SET_NO,REV_AT_EPOCH,BSTAR,MEAN_MOTION_DOT,MEAN_MOTION_DDOT,SEMIMAJOR_AXIS,PERIOD,APOAPSIS,PERIAPSIS,OBJECT_TYPE,RCS_SIZE,COUNTRY_CODE,LAUNCH_DATE,SITE,DECAY_DATE,FILE,GP_ID,TLE_LINE0,TLE_LINE1,TLE_LINE2
2.0,GENERATED VIA SPACE-TRACK.ORG API,2022-08-20T15:06:12,18 SPCS,OBJECT C,2022-023C,EARTH,TEME,UTC,SGP4,2022-08-20T14:09:42.941376,15.23094363,0.0034819,63.446,339.0579,332.5751,116.6617,0,U,51948,999,2564,0.00049538,0.00011729,0.0,6874.651,94.544,520.453,472.579,UNKNOWN,LARGE,PRC,2022-03-05,XSC,,3541252,210560739,0 OBJECT C,1 51948U 22023C   22232.59008034  .00011729  00000-0  49538-3 0  9998,2 51948  63.4460 339.0579 0034819 332.5751 116.6617 15.23094363 25640
2.0,GENERATED VIA SPACE-TRACK.ORG API,2022-08-20T14:26:12,18 SPCS,CRS-25,2022-081A,EARTH,TEME,UTC,SGP4,2022-08-20T14:06:26.801280,15.95203292,0.0142385,51.6409,17.2733,170.4368,292.5003,0,U,53113,999,568,0.00023527,0.00279806,1.1211e-05,6665.885,90.271,382.662,192.838,PAYLOAD,LARGE,US,2022-07-15,AFETR,,3541112,210557218,0 CRS-25,1 53113U 22081A   22232.58781020  .00279806  11211-4  23527-3 0  9992,2 53113  51.6409  17.2733 0142385 170.4368 292.5003 15.95203292  5683
2.0,GENERATED VIA SPACE-TRACK.ORG API,2022-08-20T14:56:12,18 SPCS,ONEWEB-0422,2022-012E,EARTH,TEME,UTC,SGP4,2022-08-20T14:00:01.000224,14.94067663,0.0003385,87.2407,294.6354,57.5736,297.5147,0,U,51626,999,2986,0.0053653,0.00057702,0.0,6963.405,96.381,587.627,582.913,PAYLOAD,LARGE,UK,2022-02-10,FRGUI,,3541192,210558904,0 ONEWEB-0422,1 51626U 22012E   22232.58334491  .00057702  00000-0  53653-2 0  9990,2 51626  87.2407 294.6354 0003385  57.5736 297.5147 14.94067663 29861
2.0,GENERATED VIA SPACE-TRACK.ORG API,2022-08-20T15:06:12,18 SPCS,STARLINK-3682,2022-029BE,EARTH,TEME,UTC,SGP4,2022-08-20T14:00:01.000224,15.08799629,0.0001615,53.2174,132.0428,67.7343,188.1872,0,U,52140,999,2511,0.0032613,0.00051941,0.0,6918.004,95.44,540.986,538.752,PAYLOAD,LARGE,US,2022-03-19,AFETR,,3541221,210560106,0 STARLINK-3682,1 52140U 22029BE  22232.58334491  .00051941  00000-0  32613-2 0  9992,2 52140  53.2174 132.0428 0001615  67.7343 188.1872 15.08799629 25119
2.0,GENERATED VIA SPACE-TRACK.ORG API,2022-08-20T15:06:12,18 SPCS,STARLINK-3730,2022-029BD,EARTH,TEME,UTC,SGP4,2022-08-20T14:00:01.000224,15.0879214,0.0001671,53.2157,142.0481,54.523,246.3702,0,U,52139,999,2496,0.0029922,0.00047592,0.0,6918.027,95.441,541.048,538.736,PAYLOAD,LARGE,US,2022-03-19,AFETR,,3541221,210559612,0 STARLINK-3730,1 52139U 22029BD  22232.58334491  .00047592  00000-0  29922-2 0  9996,2 52139  53.2157 142.0481 0001671  54.5230 246.3702 15.08792140 24961
2.0,GENERATED VIA SPACE-TRACK.ORG API,2022-08-20T15:06:12,18 SPCS,STARLINK-3726,2022-029AL,EARTH,TEME,UTC,SGP4,2022-08-20T14:00:01.000224,15.08812109,0.0001692,53.2174,142.0447,60.4463,160.4719,0,U,52122,999,2496,0.0027873,0.00044317,0.0,6917.966,95.439,541.001,538.66,PAYLOAD,LARGE,US,2022-03-19,AFETR,,3541216,210559543,0 STARLINK-3726,1 52122U 22029AL  22232.58334491  .00044317  00000-0  27873-2 0  9993,2 52122  53.2174 142.0447 0001692  60.4463 160.4719 15.08812109 24963
2.0,GENERATED VIA SPACE-TRACK.ORG API,2022-08-20T14:56:12,18 SPCS,STARLINK-3558,2022-029AH,EARTH,TEME,UTC,SGP4,2022-08-20T14:00:01.000224,15.08800896,0.0001671,53.2163,142.0435,62.3459,178.5847,0,U,52119,999,2497,0.0028389,0.00045134,0.0,6918.0,95.44,541.021,538.709,PAYLOAD,LARGE,US,2022-03-19,AFETR,,3541199,210559016,0 STARLINK-3558,1 52119U 22029AH  22232.58334491  .00045134  00000-0  28389-2 0  9990,2 52119  53.2163 142.0435 0001671  62.3459 178.5847 15.08800896 24970
2.0,GENERATED VIA SPACE-TRACK.ORG API,2022-08-20T15:06:12,18 SPCS,STARLINK-3743,2022-029AG,EARTH,TEME,UTC,SGP4,2022-08-20T14:00:01.000224,15.08804668,0.0001865,53.2161,142.0416,57.9324,82.9942,0,U,52118,999,2496,0.0028069,0.00044624,0.0,6917.988,95.44,541.144,538.563,PAYLOAD,LARGE,US,2022-03-19,AFETR,,3541215,210559526,0 STARLINK-3743,1 52118U 22029AG  22232.58334491  .00044624  00000-0  28069-2 0  9997,2 52118  53.2161 142.0416 0001865  57.9324  82.9942 15.08804668 24966
2.0,GENERATED VIA SPACE-TRACK.ORG API,2022-08-20T15:06:12,18 SPCS,STARLINK-3708,2022-029Z,EARTH,TEME,UTC,SGP4,2022-08-20T14:00:01.000224,15.08820823,0.0001975,53.2172,142.0485,60.8356,20.1267,0,U,52111,999,2496,0.0029265,0.00046571,0.0,6917.939,95.439,541.17,538.438,PAYLOAD,LARGE,US,2022-03-19,AFETR,,3541213,210559500,0 STARLINK-3708,1 52111U 22029Z   22232.58334491  .00046571  00000-0  29265-2 0  9992,2 52111  53.2172 142.0485 0001975  60.8356  20.1267 15.08820823 24962
2.0,GENERATED VIA SPACE-TRACK.ORG API,2022-08-20T14:56:12,18 SPCS,STARLINK-3658,2022-029V,EARTH,TEME,UTC,SGP4,2022-08-20T14:00:01.000224,15.08803182,0.0002229,53.2157,142.0469,62.0611,318.8463,0,U,52107,999,2496,0.0031141,0.00049572,0.0,6917.993,95.44,541.4,538.316,PAYLOAD,LARGE,US,2022-03-19,AFETR,,3541205,210559401,0 STARLINK-3658,1 52107U 22029V   22232.58334491  .00049572  00000-0  31141-2 0  9997,2 52107  53.2157 142.0469 0002229  62.0611 318.8463 15.08803182 24967
2.0,GENERATED VIA SPACE-TRACK.ORG API,2022-08-20T14:56:12,18 SPCS,STARLINK-3701,2022-029H,EARTH,TEME,UTC,SGP4,2022-08-20T14:00:01.000224,15.0881765,0.0001372,53.2174,152.0615,59.9512,105.9254,0,U,52095,999,2483,0.0021585,0.00034211,0.0,6917.949,95.439,540.763,538.865,PAYLOAD,LARGE,US,2022-03-19,AFETR,,3541196,210559364,0 STARLINK-3701,1 52095U 22029H   22232.58334491  .00034211  00000-0  21585-2 0  9998,2 52095  53.2174 152.0615 0001372  59.9512 105.9254 15.08817650 24833
2.0,GENERATED VIA SPACE-TRACK.ORG API,2022-08-20T14:26:12,18 SPCS,STARLINK-3603,2022-017BA,EARTH,TEME,UTC,SGP4,2022-08-20T14:00:01.000224,15.08838791,0.0001375,53.219,32.0497,91.5507,294.4065,0,U,51816,999,2843,-0.0013553,-0.00021792,0.0,6917.884,95.438,540.7,538.798,PAYLOAD,LARGE,US,2022-02-25,AFWTR,,3541100,210557364,0 STARLINK-3603,1 51816U 22017BA  22232.58334491 -.00021792  00000-0 -13553-2 0  9993,2 51816  53.2190  32.0497 0001375  91.5507 294.4065 15.08838791 28438
2.0,GENERATED VIA SPACE-TRACK.ORG API,2022-08-20T14:26:12,18 SPCS,STARLINK-3604,2022-017AZ,EARTH,TEME,UTC,SGP4,2022-08-20T14:00:01.000224,15.08847711,0.0001513,53.2199,32.0513,91.9068,254.0166,0,U,51815,999,2838,-0.0012709,-0.00020462,0.0,6917.857,95.437,540.768,538.675,PAYLOAD,LARGE,US,2022-02-25,AFWTR,,3541099,210557356,0 STARLINK-3604,1 51815U 22017AZ  22232.58334491 -.00020462  00000-0 -12709-2 0  9997,2 51815  53.2199  32.0513 0001513  91.9068 254.0166 15.08847711 28385
2.0,GENERATED VIA SPACE-TRACK.ORG API,2022-08-20T14:26:12,18 SPCS,STARLINK-3599,2022-017AY,EARTH,TEME,UTC,SGP4,2022-08-20T14:00:01.000224,15.08842948,0.0001441,53.2192,32.0485,85.9009,280.0421,0,U,51814,999,2838,-0.0013198,-0.00021233,0.0,6917.871,95.437,540.733,538.74,PAYLOAD,LARGE,US,2022-02-25,AFWTR,,3541099,210557361,0 STARLINK-3599,1 51814U 22017AY  22232.58334491 -.00021233  00000-0 -13198-2 0  9996,2 51814  53.2192  32.0485 0001441  85.9009 280.0421 15.08842948 28383
2.0,GENERATED VIA SPACE-TRACK.ORG API,2022-08-20T14:26:12,18 SPCS,STARLINK-3552,2022-017AX,EARTH,TEME,UTC,SGP4,2022-08-20T14:00:01.000224,15.08849268,0.0001579,53.217,32.055,69.4284,11.2921,0,U,51813,999,2837,-0.0015032,-0.00024138,0.0,6917.852,95.437,540.809,538.625,PAYLOAD,LARGE,US,2022-02-25,AFWTR,,3541104,210557434,0 STARLINK-3552,1 51813U 22017AX  22232.58334491 -.00024138  00000-0 -15032-2 0  9991,2 51813  53.2170  32.0550 0001579  69.4284  11.2921 15.08849268 28375
2.0,GENERATED VIA SPACE-TRACK.ORG API,2022-08-20T14:26:12,18 SPCS,STARLINK-3610,2022-017AW,EARTH,TEME,UTC,SGP4,2022-08-20T14:00:01.000224,15.08845632,0.0001592,53.2184,32.0451,81.9911,243.9311,0,U,51812,999,2837,-0.001202,-0.0001937,0.0,6917.863,95.437,540.829,538.627,PAYLOAD,LARGE,US,2022-02-25,AFWTR,,3541099,210557168,0 STARLINK-3610,1 51812U 22017AW  22232.58334491 -.00019370  00000-0 -12020-2 0  9996,2 51812  53.2184  32.0451 0001592  81.9911 243.9311 15.08845632 28378
2.0,GENERATED VIA SPACE-TRACK.ORG API,2022-08-20T14:26:12,18 SPCS,STARLINK-3569,2022-017AV,EARTH,TEME,UTC,SGP4,2022-08-20T14:00:01.000224,15.0884064,0.0001317,53.2179,42.0673,66.8535,304.0714,0,U,51811,999,2824,-0.0012417,-0.00019995,0.0,6917.878,95.438,540.655,538.832,PAYLOAD,LARGE,US,2022-02-25,AFWTR,,3541099,210557362,0 STARLINK-3569,1 51811U 22017AV  22232.58334491 -.00019995  00000-0 -12417-2 0  9998,2 51811  53.2179  42.0673 0001317  66.8535 304.0714 15.08840640 28243
2.0,GENERATED VIA SPACE-TRACK.ORG API,2022-08-20T14:26:12,18 SPCS,STARLINK-3613,2022-017AU,EARTH,TEME,UTC,SGP4,2022-08-20T14:00:01.000224,15.088389,0.0001281,53.2193,32.0485,90.4422,170.2798,0,U,51810,999,2838,-0.0011743,-0.00018927,0.0,6917.884,95.438,540.635,538.863,PAYLOAD,LARGE,US,2022-02-25,AFWTR,,3541106,210557161,0 STARLINK-3613,1 51810U 22017AU  22232.58334491 -.00018927  00000-0 -11743-2 0  9992,2 51810  53.2193  32.0485 0001281  90.4422 170.2798 15.08838900 28382
2.0,GENERATED VIA SPACE-TRACK.ORG API,2022-08-20T14:26:12,18 SPCS,STARLINK-3609,2022-017AS,EARTH,TEME,UTC,SGP4,2022-08-20T14:00:01.000224,15.0884521,0.0001368,53.2177,42.0707,67.306,323.6222,0,U,51808,999,2824,-0.0012449,-0.00020049,0.0,6917.864,95.437,540.676,538.783,PAYLOAD,LARGE,US,2022-02-25,AFWTR,,3541106,210557343,0 STARLINK-3609,1 51808U 22017AS  22232.58334491 -.00020049  00000-0 -12449-2 0  9991,2 51808  53.2177  42.0707 0001368  67.3060 323.6222 15.08845210 28249
